[
  {
    "OBJECT_NAME": "STARLINK-3993",
    "OBJECT_ID": "22053AN",
    "EPOCH": "2025-11-11T06:12:17.144064",
    "MEAN_MOTION": 15.08855337,
    "ECCENTRICITY": 0.0001593,
    "INCLINATION": 53.2165,
    "RA_OF_ASC_NODE": 315.5061,
    "ARG_OF_PERICENTER": 80.6865,
    "MEAN_ANOMALY": 279.4308,
    "EPHEMERIS_TYPE": 0,
    "CLASSIFICATION_TYPE": "U",
    "NORAD_CAT_ID": 52692,
    "ELEMENT_SET_NO": 999,
    "REV_AT_EPOCH": 19327,
    "BSTAR": 0.0,
    "MEAN_MOTION_DOT": -6.304e-05,
    "MEAN_MOTION_DDOT": 0.0,
    "TLE_LINE1": "1 52692U 22053AN  25315.25853176 -.00006304  00000+0 -37817-3 0  9992",
    "TLE_LINE2": "2 52692  53.2165 315.5061 0001593  80.6865 279.4308 15.08855337193270",
    "COMMENT": "Grouped by shell and plane from TLE"
  },
  {
    "OBJECT_NAME": "STARLINK-3946",
    "OBJECT_ID": "22053AP",
    "EPOCH": "2025-11-11T06:22:56.949024",
    "MEAN_MOTION": 15.08841912,
    "ECCENTRICITY": 0.0001482,
    "INCLINATION": 53.2172,
    "RA_OF_ASC_NODE": 315.7429,
    "ARG_OF_PERICENTER": 89.8544,
    "MEAN_ANOMALY": 270.2618,
    "EPHEMERIS_TYPE": 0,
    "CLASSIFICATION_TYPE": "U",
    "NORAD_CAT_ID": 52693,
    "ELEMENT_SET_NO": 999,
    "REV_AT_EPOCH": 19327,
    "BSTAR": 4.9674000000000006e-05,
    "MEAN_MOTION_DOT": 5.03e-06,
    "MEAN_MOTION_DDOT": 0.0,
    "TLE_LINE1": "1 52693U 22053AP  25315.26593691  .00000503  00000+0  49674-4 0  9995",
    "TLE_LINE2": "2 52693  53.2172 315.7429 0001482  89.8544 270.2618 15.08841912193278",
    "COMMENT": "Grouped by shell and plane from TLE"
  },
  {
    "OBJECT_NAME": "STARLINK-4072",
    "OBJECT_ID": "22053AQ",
    "EPOCH": "2025-11-11T06:44:08.430432",
    "MEAN_MOTION": 15.08843333,
    "ECCENTRICITY": 0.0001443,
    "INCLINATION": 53.2177,
    "RA_OF_ASC_NODE": 315.6782,
    "ARG_OF_PERICENTER": 89.692,
    "MEAN_ANOMALY": 270.4237,
    "EPHEMERIS_TYPE": 0,
    "CLASSIFICATION_TYPE": "U",
    "NORAD_CAT_ID": 52694,
    "ELEMENT_SET_NO": 999,
    "REV_AT_EPOCH": 19327,
    "BSTAR": 0.00011344999999999999,
    "MEAN_MOTION_DOT": 1.518e-05,
    "MEAN_MOTION_DDOT": 0.0,
    "TLE_LINE1": "1 52694U 22053AQ  25315.28065313  .00001518  00000+0  11345-3 0  9993",
    "TLE_LINE2": "2 52694  53.2177 315.6782 0001443  89.6920 270.4237 15.08843333193276",
    "COMMENT": "Grouped by shell and plane from TLE"
  },
  {
    "OBJECT_NAME": "STARLINK-3987",
    "OBJECT_ID": "22053AV",
    "EPOCH": "2025-11-11T06:26:15.409824",
    "MEAN_MOTION": 15.08848564,
    "ECCENTRICITY": 0.0001353,
    "INCLINATION": 53.2175,
    "RA_OF_ASC_NODE": 310.7634,
    "ARG_OF_PERICENTER": 89.9073,
    "MEAN_ANOMALY": 270.2074,
    "EPHEMERIS_TYPE": 0,
    "CLASSIFICATION_TYPE": "U",
    "NORAD_CAT_ID": 52699,
    "ELEMENT_SET_NO": 999,
    "REV_AT_EPOCH": 19336,
    "BSTAR": 0.0001137,
    "MEAN_MOTION_DOT": 1.523e-05,
    "MEAN_MOTION_DDOT": 0.0,
    "TLE_LINE1": "1 52699U 22053AV  25315.26823391  .00001523  00000+0  11370-3 0  9998",
    "TLE_LINE2": "2 52699  53.2175 310.7634 0001353  89.9073 270.2074 15.08848564193361",
    "COMMENT": "Grouped by shell and plane from TLE"
  },
  {
    "OBJECT_NAME": "STARLINK-4300",
    "OBJECT_ID": "22083AT",
    "EPOCH": "2025-11-11T07:03:21.452256",
    "MEAN_MOTION": 15.08840758,
    "ECCENTRICITY": 0.0001404,
    "INCLINATION": 53.2177,
    "RA_OF_ASC_NODE": 310.6086,
    "ARG_OF_PERICENTER": 86.6598,
    "MEAN_ANOMALY": 273.4555,
    "EPHEMERIS_TYPE": 0,
    "CLASSIFICATION_TYPE": "U",
    "NORAD_CAT_ID": 53173,
    "ELEMENT_SET_NO": 999,
    "REV_AT_EPOCH": 18382,
    "BSTAR": 0.00010986,
    "MEAN_MOTION_DOT": 1.461e-05,
    "MEAN_MOTION_DDOT": 0.0,
    "TLE_LINE1": "1 53173U 22083AT  25315.29399829  .00001461  00000+0  10986-3 0  9999",
    "TLE_LINE2": "2 53173  53.2177 310.6086 0001404  86.6598 273.4555 15.08840758183820",
    "COMMENT": "Grouped by shell and plane from TLE"
  },
  {
    "OBJECT_NAME": "STARLINK-4298",
    "OBJECT_ID": "22083AX",
    "EPOCH": "2025-11-11T06:52:45.391008",
    "MEAN_MOTION": 15.08836091,
    "ECCENTRICITY": 0.0001473,
    "INCLINATION": 53.2194,
    "RA_OF_ASC_NODE": 310.6459,
    "ARG_OF_PERICENTER": 101.8367,
    "MEAN_ANOMALY": 258.2791,
    "EPHEMERIS_TYPE": 0,
    "CLASSIFICATION_TYPE": "U",
    "NORAD_CAT_ID": 53177,
    "ELEMENT_SET_NO": 999,
    "REV_AT_EPOCH": 18382,
    "BSTAR": 3.295e-05,
    "MEAN_MOTION_DOT": 2.36e-06,
    "MEAN_MOTION_DDOT": 0.0,
    "TLE_LINE1": "1 53177U 22083AX  25315.28663647  .00000236  00000+0  32950-4 0  9999",
    "TLE_LINE2": "2 53177  53.2194 310.6459 0001473 101.8367 258.2791 15.08836091183825",
    "COMMENT": "Grouped by shell and plane from TLE"
  },
  {
    "OBJECT_NAME": "STARLINK-4278",
    "OBJECT_ID": "22083BC",
    "EPOCH": "2025-11-11T05:12:04.217472",
    "MEAN_MOTION": 15.08837621,
    "ECCENTRICITY": 0.0001304,
    "INCLINATION": 53.2175,
    "RA_OF_ASC_NODE": 310.9549,
    "ARG_OF_PERICENTER": 90.1197,
    "MEAN_ANOMALY": 269.9945,
    "EPHEMERIS_TYPE": 0,
    "CLASSIFICATION_TYPE": "U",
    "NORAD_CAT_ID": 53182,
    "ELEMENT_SET_NO": 999,
    "REV_AT_EPOCH": 18381,
    "BSTAR": 7.7222e-05,
    "MEAN_MOTION_DOT": 9.41e-06,
    "MEAN_MOTION_DDOT": 0.0,
    "TLE_LINE1": "1 53182U 22083BC  25315.21671548  .00000941  00000+0  77222-4 0  9991",
    "TLE_LINE2": "2 53182  53.2175 310.9549 0001304  90.1197 269.9945 15.08837621183816",
    "COMMENT": "Grouped by shell and plane from TLE"
  },
  {
    "OBJECT_NAME": "STARLINK-4169",
    "OBJECT_ID": "22086AQ",
    "EPOCH": "2025-11-11T07:19:12.235872",
    "MEAN_MOTION": 15.08837228,
    "ECCENTRICITY": 0.000139,
    "INCLINATION": 53.2179,
    "RA_OF_ASC_NODE": 310.243,
    "ARG_OF_PERICENTER": 82.8765,
    "MEAN_ANOMALY": 277.2385,
    "EPHEMERIS_TYPE": 0,
    "CLASSIFICATION_TYPE": "U",
    "NORAD_CAT_ID": 53280,
    "ELEMENT_SET_NO": 999,
    "REV_AT_EPOCH": 18396,
    "BSTAR": 9.673e-05,
    "MEAN_MOTION_DOT": 1.252e-05,
    "MEAN_MOTION_DDOT": 0.0,
    "TLE_LINE1": "1 53280U 22086AQ  25315.30500273  .00001252  00000+0  96730-4 0  9990",
    "TLE_LINE2": "2 53280  53.2179 310.2430 0001390  82.8765 277.2385 15.08837228183964",
    "COMMENT": "Grouped by shell and plane from TLE"
  },
  {
    "OBJECT_NAME": "STARLINK-5758",
    "OBJECT_ID": "23042BD",
    "EPOCH": "2025-11-11T01:11:48.073344",
    "MEAN_MOTION": 15.02526382,
    "ECCENTRICITY": 0.0001386,
    "INCLINATION": 43.0026,
    "RA_OF_ASC_NODE": 314.7111,
    "ARG_OF_PERICENTER": 250.1118,
    "MEAN_ANOMALY": 109.9576,
    "EPHEMERIS_TYPE": 0,
    "CLASSIFICATION_TYPE": "U",
    "NORAD_CAT_ID": 56037,
    "ELEMENT_SET_NO": 999,
    "REV_AT_EPOCH": 14536,
    "BSTAR": 5.9137e-05,
    "MEAN_MOTION_DOT": 5.95e-06,
    "MEAN_MOTION_DDOT": 0.0,
    "TLE_LINE1": "1 56037U 23042BD  25315.04986196  .00000595  00000+0  59137-4 0  9998",
    "TLE_LINE2": "2 56037  43.0026 314.7111 0001386 250.1118 109.9576 15.02526382145362",
    "COMMENT": "Grouped by shell and plane from TLE"
  },
  {
    "OBJECT_NAME": "STARLINK-5795",
    "OBJECT_ID": "23042BF",
    "EPOCH": "2025-11-11T07:28:20.482752",
    "MEAN_MOTION": 15.02526229,
    "ECCENTRICITY": 7.97e-05,
    "INCLINATION": 43.003,
    "RA_OF_ASC_NODE": 313.2334,
    "ARG_OF_PERICENTER": 280.263,
    "MEAN_ANOMALY": 79.8122,
    "EPHEMERIS_TYPE": 0,
    "CLASSIFICATION_TYPE": "U",
    "NORAD_CAT_ID": 56039,
    "ELEMENT_SET_NO": 999,
    "REV_AT_EPOCH": 14540,
    "BSTAR": 0.0,
    "MEAN_MOTION_DOT": -2.251e-05,
    "MEAN_MOTION_DDOT": 0.0,
    "TLE_LINE1": "1 56039U 23042BF  25315.31134818 -.00002251  00000+0 -15170-3 0  9997",
    "TLE_LINE2": "2 56039  43.0030 313.2334 0000797 280.2630  79.8122 15.02526229145405",
    "COMMENT": "Grouped by shell and plane from TLE"
  },
  {
    "OBJECT_NAME": "STARLINK-5798",
    "OBJECT_ID": "23042BG",
    "EPOCH": "2025-11-11T07:25:07.218912",
    "MEAN_MOTION": 15.0252625,
    "ECCENTRICITY": 0.0001454,
    "INCLINATION": 43.0048,
    "RA_OF_ASC_NODE": 313.2107,
    "ARG_OF_PERICENTER": 266.4887,
    "MEAN_ANOMALY": 93.5789,
    "EPHEMERIS_TYPE": 0,
    "CLASSIFICATION_TYPE": "U",
    "NORAD_CAT_ID": 56040,
    "ELEMENT_SET_NO": 999,
    "REV_AT_EPOCH": 14540,
    "BSTAR": 0.0,
    "MEAN_MOTION_DOT": -2.511e-05,
    "MEAN_MOTION_DDOT": 0.0,
    "TLE_LINE1": "1 56040U 23042BG  25315.30911133 -.00002511  00000+0 -17091-3 0  9994",
    "TLE_LINE2": "2 56040  43.0048 313.2107 0001454 266.4887  93.5789 15.02526250145401",
    "COMMENT": "Grouped by shell and plane from TLE"
  },
  {
    "OBJECT_NAME": "STARLINK-5800",
    "OBJECT_ID": "23042BH",
    "EPOCH": "2025-11-11T07:21:55.300320",
    "MEAN_MOTION": 15.02532842,
    "ECCENTRICITY": 0.0001203,
    "INCLINATION": 43.004,
    "RA_OF_ASC_NODE": 313.1971,
    "ARG_OF_PERICENTER": 271.3025,
    "MEAN_ANOMALY": 88.768,
    "EPHEMERIS_TYPE": 0,
    "CLASSIFICATION_TYPE": "U",
    "NORAD_CAT_ID": 56041,
    "ELEMENT_SET_NO": 999,
    "REV_AT_EPOCH": 14540,
    "BSTAR": 5.77e-05,
    "MEAN_MOTION_DOT": 5.76e-06,
    "MEAN_MOTION_DDOT": 0.0,
    "TLE_LINE1": "1 56041U 23042BH  25315.30689005  .00000576  00000+0  57700-4 0  9994",
    "TLE_LINE2": "2 56041  43.0040 313.1971 0001203 271.3025  88.7680 15.02532842145403",
    "COMMENT": "Grouped by shell and plane from TLE"
  },
  {
    "OBJECT_NAME": "STARLINK-6038",
    "OBJECT_ID": "23058A",
    "EPOCH": "2025-11-11T05:42:35.079264",
    "MEAN_MOTION": 15.05662145,
    "ECCENTRICITY": 0.000367,
    "INCLINATION": 97.6041,
    "RA_OF_ASC_NODE": 314.4667,
    "ARG_OF_PERICENTER": 83.4891,
    "MEAN_ANOMALY": 276.6753,
    "EPHEMERIS_TYPE": 0,
    "CLASSIFICATION_TYPE": "U",
    "NORAD_CAT_ID": 56317,
    "ELEMENT_SET_NO": 999,
    "REV_AT_EPOCH": 14002,
    "BSTAR": 0.00033308,
    "MEAN_MOTION_DOT": 4.75e-05,
    "MEAN_MOTION_DDOT": 0.0,
    "TLE_LINE1": "1 56317U 23058A   25315.23790601  .00004750  00000+0  33308-3 0  9999",
    "TLE_LINE2": "2 56317  97.6041 314.4667 0003670  83.4891 276.6753 15.05662145140029",
    "COMMENT": "Grouped by shell and plane from TLE"
  }
]